
# Worst residual: 42.94 km
# MJD 60525.000000 (2024 Aug  3  0:00)
Chang'e-6 = 2024-083A = NORAD 59627
1 59627U 24083A   24216.49919926  .00000000  00000-0  00000-0 2 23707
2 59627 026.6045 008.5728 8247197 075.9933 165.5730 00.01132614    03

# Worst residual: 44.85 km
# MJD 60526.000000 (2024 Aug  4  0:00)
Chang'e-6 = 2024-083A = NORAD 59627
1 59627U 24083A   24217.49919926  .00000000  00000-0  00000-0 2 23708
2 59627 026.5494 008.1420 8096013 076.6868 168.5703 00.01117559    03

# Worst residual: 48.09 km
# MJD 60527.000000 (2024 Aug  5  0:00)
Chang'e-6 = 2024-083A = NORAD 59627
1 59627U 24083A   24218.49919926  .00000000  00000-0  00000-0 2 23709
2 59627 026.4998 007.7226 7932235 077.3258 171.6872 00.01101782    08

# Worst residual: 48.16 km
# MJD 60528.000000 (2024 Aug  6  0:00)
Chang'e-6 = 2024-083A = NORAD 59627
1 59627U 24083A   24219.49919926  .00000000  00000-0  00000-0 2 23700
2 59627 026.4556 007.3170 7757063 077.8959 174.9400 00.01085343    06

# Worst residual: 50.13 km
# MJD 60529.000000 (2024 Aug  7  0:00)
Chang'e-6 = 2024-083A = NORAD 59627
1 59627U 24083A   24220.49919926  .00000000  00000-0  00000-0 2 23702
2 59627 026.4167 006.9262 7572096 078.3836 178.3400 00.01068307    01

# Worst residual: 50.47 km
# MJD 60530.000000 (2024 Aug  8  0:00)
Chang'e-6 = 2024-083A = NORAD 59627
1 59627U 24083A   24221.49919926  .00000000  00000-0  00000-0 2 23703
2 59627 026.3831 006.5516 7379113 078.7758 181.8941 00.01050749    08

# Worst residual: 50.25 km
# MJD 60531.000000 (2024 Aug  9  0:00)
Chang'e-6 = 2024-083A = NORAD 59627
1 59627U 24083A   24222.49919926  .00000000  00000-0  00000-0 2 23704
2 59627 026.3543 006.1936 7180123 079.0603 185.6062 00.01032755    07

# Worst residual: 48.96 km
# MJD 60532.000000 (2024 Aug 10  0:00)
Chang'e-6 = 2024-083A = NORAD 59627
1 59627U 24083A   24223.49919926  .00000000  00000-0  00000-0 2 23705
2 59627 026.3301 005.8526 6977373 079.2260 189.4780 00.01014420    09

# Worst residual: 47.87 km
# MJD 60533.000000 (2024 Aug 11  0:00)
Chang'e-6 = 2024-083A = NORAD 59627
1 59627U 24083A   24224.49919926  .00000000  00000-0  00000-0 2 23706
2 59627 026.3103 005.5283 6773371 079.2630 193.5090 00.00995851    04

# Worst residual: 46.51 km
# MJD 60534.000000 (2024 Aug 12  0:00)
Chang'e-6 = 2024-083A = NORAD 59627
1 59627U 24083A   24225.49919926  .00000000  00000-0  00000-0 2 23707
2 59627 026.2944 005.2208 6570808 079.1636 197.6957 00.00977176    02

# Worst residual: 44.15 km
# MJD 60535.000000 (2024 Aug 13  0:00)
Chang'e-6 = 2024-083A = NORAD 59627
1 59627U 24083A   24226.49919926  .00000000  00000-0  00000-0 2 23708
2 59627 026.2823 004.9299 6372629 078.9238 202.0291 00.00958550    07

# Worst residual: 41.70 km
# MJD 60536.000000 (2024 Aug 14  0:00)
Chang'e-6 = 2024-083A = NORAD 59627
1 59627U 24083A   24227.49919926  .00000000  00000-0  00000-0 2 23709
2 59627 026.2735 004.6554 6181998 078.5452 206.4914 00.00940155    03
